#aV2011 12 26  0  0   .00000000      96 DD+AD WGS84 FIT  NGA
## 1668  86400.00000000   900.00000000 55921  .0000000000000
+   31     1  2  3  4  5  6  7  8  9 10 11 12 13 14 15 16 17
+         18 19 20 21 22 23 25 26 27 28 29 30 31 32  0  0  0
+          0  0  0  0  0  0  0  0  0  0  0  0  0  0  0  0  0
+          0  0  0  0  0  0  0  0  0  0  0  0  0  0  0  0  0
+          0  0  0  0  0  0  0  0  0  0  0  0  0  0  0  0  0
++         0  0  0  0  0  0  0  0  0  0  0  0  0  0  0  0  0
++         0  0  0  0  0  0  0  0  0  0  0  0  0  0  0  0  0
++         0  0  0  0  0  0  0  0  0  0  0  0  0  0  0  0  0
++         0  0  0  0  0  0  0  0  0  0  0  0  0  0  0  0  0
++         0  0  0  0  0  0  0  0  0  0  0  0  0  0  0  0  0
%c cc cc ccc ccc cccc cccc cccc cccc ccccc ccccc ccccc ccccc
%c cc cc ccc ccc cccc cccc cccc cccc ccccc ccccc ccccc ccccc
%f  0.0000000  0.000000000  0.00000000000  0.000000000000000
%f  0.0000000  0.000000000  0.00000000000  0.000000000000000
%i    0    0    0    0      0      0      0      0         0
%i    0    0    0    0      0      0      0      0         0
/*      NGA, ST. LOUIS,MO.                                  
/*   EPHEMERIS COMPUTED FROM  3 DAYS OF DATA                
/* CCCCCCCCCCCCCCCCCCCCCCCCCCCCCCCCCCCCCCCCCCCCCCCCCCCCCCCCC
/* CCCCCCCCCCCCCCCCCCCCCCCCCCCCCCCCCCCCCCCCCCCCCCCCCCCCCCCCC
*  2011 12 26  7 45   .00000000                                                 
P  1   5690.035676 -18279.350518 -18423.003109    157.306597                    
V  1  20939.481306 -10478.968235  16889.856068       .149055                    
P  2 -22528.769595  13537.398176     56.130706    371.893239                    
V  2  -2019.533248  -3426.069434 -31572.977093       .016888                    
P  3  11797.505141 -14585.236463  18241.553469    813.594383                    
V  3   5281.562716  23818.679339  15537.485350       .052710                    
P  4 -23906.549813   4053.938365 -11457.251156     44.370383                    
V  4  10883.881098  -9388.285169 -26262.592852       .112027                    
P  5 -15020.393841   8068.890275  20370.825351   -262.646160                    
V  5 -21953.666637 -13808.995372 -10583.272527      -.047583                    
P  6  14285.667437  -9875.071019  20161.935716     18.824304                    
V  6   2720.364188  25352.397076  10824.102063       .036146                    
P  7  -9366.339904 -11781.442672  21919.039156     45.721156                    
V  7  24144.435079 -13617.884066   2764.595614       .024588                    
P  8 -19223.949363  -4119.405040  18191.368587       .246082                    
V  8  20360.906107 -10018.374223  18757.187584       .000975                    
P  9  -9422.014383  18690.610685 -16913.542234    127.545809                    
V  9 -18120.052378   9399.154029  21147.508545       .026111                    
P 10 -24208.347323  -8453.665546   7429.134371    -23.446974                    
V 10  -6820.965960  -7393.123253 -29287.513099      -.012319                    
P 11   8582.040582 -22221.034973 -11780.133860   -216.776155                    
V 11  13462.643600  -7390.748495  24855.892452      -.037169                    
P 12   2388.023649  17274.593255 -20076.141183     42.831013                    
V 12 -22155.692521 -12475.194104 -13192.488687       .022315                    
P 13  -5492.648364 -23234.287726  11415.250349    234.231301                    
V 13   3067.790822 -14480.696564 -27742.962695      -.020627                    
P 14  14096.592514   5908.511724 -21563.030551    187.372819                    
V 14  -2115.130838  27642.182477   6006.557892       .015989                    
P 15  -4534.028418  25109.903483   6996.693326    -95.923156                    
V 15  -3401.071617  -8879.235124  29876.422395       .008251                    
P 16  15787.080752  -6312.446197  20499.306033   -215.786214                    
V 16  21485.918656  14409.180569 -11827.871398      -.018487                    
P 17 -14179.298326  -8317.422452 -20755.779924    158.421777                    
V 17   1643.534787 -26611.371249   9232.950184      -.021900                    
P 18  18856.977141  17617.568773   7376.580768    173.676325                    
V 18  -9243.033614  -1817.893906  28968.661042       .018251                    
P 19   8417.233055 -23286.453005   9052.221369   -219.030026                    
V 19   1859.591167  11867.067046  29052.978464      -.039066                    
P 20  -3976.411245 -18168.471970 -19147.838633     58.750989                    
V 20  22048.727896   9763.256877 -13884.141418       .007550                    
P 21  14309.319482   9651.655451  20758.612913   -193.339305                    
V 21 -21710.713363  13099.273841   8473.424877      -.024683                    
P 22  24184.340993   9097.194223  -6220.820097    143.037642                    
V 22   5121.942889   7271.666771  29602.212360      -.002296                    
P 23   -712.539543 -26309.706356   1541.633814    247.543921                    
V 23   3102.754443  -1902.850375 -31945.611015      -.033473                    
P 25  13133.190810  18450.624749 -13930.910341     30.585773                    
V 25 -16324.904265  -6927.364333 -24571.553936       .004337                    
P 26 -12093.494531  16506.672472  16109.417708   -275.396146                    
V 26     15.608605 -21775.110264  21905.032790      -.139248                    
P 27 -15786.429181  18073.208728 -10253.544315    339.684261                    
V 27 -13198.387297   5498.229791  28674.559441       .038975                    
P 28 -23289.949264 -12542.752491  -3026.656830     96.636319                    
V 28  -2624.736652  -4204.494987  31655.546235       .036098                    
P 29   6113.589075  23778.026900  10245.487096    269.406761                    
V 29  -2941.681000  12786.284048 -28057.869980       .033203                    
P 30  22534.855019   -384.513851  13703.936306     11.273542                    
V 30  15437.984503   9551.900109 -24479.700507      -.119423                    
P 31  24186.200580  -6657.398727  -8858.184850    187.384147                    
V 31  -9090.445763   7212.849240 -29332.037103       .049272                    
P 32   4848.706879 -14997.959794 -21195.874165   -382.988798                    
V 32  22644.706772  15488.081399  -5261.390659      -.058508                    
EOF
